49289,ONEWEB-0363,2021,109.03,148.0,+,87.93,Active,1,LEO,Russia,UK,Commercial,Communications,Soyuz,1 49289U 21090L   25144.53229404  .00000040  00000+0  65273-4 0  9999,2 49289  87.9268 351.8391 0001919  74.2066 285.9278 13.20770166179000,13.20770166,0.0001919,LEO
49290,ONEWEB-0364,2021,109.03,148.0,+,87.93,Active,1,LEO,Russia,UK,Commercial,Communications,Soyuz,1 49290U 21090M   25144.49442053 -.00000022  00000+0 -85525-4 0  9997,2 49290  87.9270 351.8767 0001751  81.9636 278.1696 13.20770669180136,13.20770669,0.0001751,LEO
49291,ONEWEB-0365,2021,109.11,148.0,+,87.92,Active,1,LEO,Russia,UK,Commercial,Communications,Soyuz,1 49291U 21090N   25144.62563811 -.00000018  00000+0 -76214-4 0  9999,2 49291  87.9234  22.1918 0001743  84.2960 275.8371 13.19723923175171,13.19723923,0.0001743,LEO
49292,ONEWEB-0366,2021,109.55,148.0,+,87.91,Active,1,LEO,Russia,UK,Commercial,Communications,Soyuz,1 49292U 21090P   25144.55013128 -.00000034  00000+0 -12544-3 0  9996,2 49292  87.9054   7.0336 0001804  81.8550 278.2784 13.14503072176503,13.14503072,0.0001804,LEO
49293,ONEWEB-0367,2021,109.03,148.0,+,87.93,Active,1,LEO,Russia,UK,Commercial,Communications,Soyuz,1 49293U 21090Q   25144.07617355  .00000146  00000+0  32665-3 0  9994,2 49293  87.9268 351.9250 0001802  93.6182 266.5157 13.20770458178469,13.20770458,0.0001802,LEO
49294,ONEWEB-0368,2021,109.03,148.0,+,87.93,Active,1,LEO,Russia,UK,Commercial,Communications,Soyuz,1 49294U 21090R   25144.57964194  .00000039  00000+0  65066-4 0  9999,2 49294  87.9270 351.8582 0001111  66.7716 293.3535 13.20770126179682,13.20770126,0.0001111,LEO
49295,ONEWEB-0369,2021,109.11,148.0,+,87.92,Active,1,LEO,Russia,UK,Commercial,Communications,Soyuz,1 49295U 21090S   25144.39345361 -.00000029  00000+0 -10520-3 0  9994,2 49295  87.9242  22.2643 0001743  82.4561 277.6770 13.19723975175133,13.19723975,0.0001743,LEO
49296,ONEWEB-0370,2021,109.03,148.0,+,87.93,Active,1,LEO,Russia,UK,Commercial,Communications,Soyuz,1 49296U 21090T   25144.54018443  .00000037  00000+0  59400-4 0  9998,2 49296  87.9270 351.8381 0002101  92.8073 267.3300 13.20769849178564,13.20769849,0.0002101,LEO
